{"type": "FeatureCollection", "features": [{"type": "Feature", "geometry": {"type": "Point", "coordinates": [81.122298, 21.117914]}, "properties": {"toll_name": "Thakurtola (End of Durg Bypass)"}}, {"type": "Feature", "geometry": {"type": "Point", "coordinates": [75.2798, 14.90999]}, "properties": {"toll_name": "Bankapur"}}, {"type": "Feature", "geometry": {"type": "Point", "coordinates": [74.64785, 15.76311]}, "properties": {"toll_name": "Hirebagewadi"}}, {"type": "Feature", "geometry": {"type": "Point", "coordinates": [81.287962, 21.214518]}, "properties": {"toll_name": "Durg Bypass (Dhamdanaka)"}}, {"type": "Feature", "geometry": {"type": "Point", "coordinates": [74.51696, 16.1433]}, "properties": {"toll_name": "Hattargi"}}, {"type": "Feature", "geometry": {"type": "Point", "coordinates": [74.31825, 16.5422]}, "properties": {"toll_name": "Kognoli"}}, {"type": "Feature", "geometry": {"type": "Point", "coordinates": [78.272821, 27.218247]}, "properties": {"toll_name": "Tundla"}}, {"type": "Feature", "geometry": {"type": "Point", "coordinates": [75.003849, 12.875095]}, "properties": {"toll_name": "Brahamarakotlu"}}, {"type": "Feature", "geometry": {"type": "Point", "coordinates": [81.861017, 25.41629]}, "properties": {"toll_name": "Cable Stayed Naini Bridge"}}, {"type": "Feature", "geometry": {"type": "Point", "coordinates": [74.817676, 25.033921]}, "properties": {"toll_name": "Bassi"}}, {"type": "Feature", "geometry": {"type": "Point", "coordinates": [75.199063, 25.09118]}, "properties": {"toll_name": "Aroli"}}, {"type": "Feature", "geometry": {"type": "Point", "coordinates": [75.598467, 25.072621]}, "properties": {"toll_name": "Dhaneshwar"}}, {"type": "Feature", "geometry": {"type": "Point", "coordinates": [76.572806, 25.122]}, "properties": {"toll_name": "Fatehpur"}}, {"type": "Feature", "geometry": {"type": "Point", "coordinates": [76.130552, 25.170089]}, "properties": {"toll_name": "Simliya"}}, {"type": "Feature", "geometry": {"type": "Point", "coordinates": [78.07338, 11.72034]}, "properties": {"toll_name": "Omallur"}}, {"type": "Feature", "geometry": {"type": "Point", "coordinates": [78.780812, 11.592809]}, "properties": {"toll_name": "Nathakkarai"}}, {"type": "Feature", "geometry": {"type": "Point", "coordinates": [79.010409, 11.736464]}, "properties": {"toll_name": "Veeracholapuram (West)"}}, {"type": "Feature", "geometry": {"type": "Point", "coordinates": [78.08042, 12.00643]}, "properties": {"toll_name": "Palayam (Dharmapuri)"}}, {"type": "Feature", "geometry": {"type": "Point", "coordinates": [78.103219, 11.193895]}, "properties": {"toll_name": "Rasampalayan"}}, {"type": "Feature", "geometry": {"type": "Point", "coordinates": [79.968944, 12.982155]}, "properties": {"toll_name": "Nemili (Sriperumbudur)"}}, {"type": "Feature", "geometry": {"type": "Point", "coordinates": [78.420749, 28.836176]}, "properties": {"toll_name": "Joya"}}, {"type": "Feature", "geometry": {"type": "Point", "coordinates": [75.156824, 21.75667]}, "properties": {"toll_name": "Khalghat -MP/Maharashtra Border(Sendhwa, Jamli)"}}, {"type": "Feature", "geometry": {"type": "Point", "coordinates": [78.581277, 10.64127]}, "properties": {"toll_name": "Boothakudi"}}, {"type": "Feature", "geometry": {"type": "Point", "coordinates": [78.244086, 9.989594]}, "properties": {"toll_name": "Chittampatti"}}, {"type": "Feature", "geometry": {"type": "Point", "coordinates": [77.400004, 13.090749]}, "properties": {"toll_name": "Banglore - Neelamangla"}}, {"type": "Feature", "geometry": {"type": "Point", "coordinates": [75.728025, 14.556778]}, "properties": {"toll_name": "Chalageri"}}, {"type": "Feature", "geometry": {"type": "Point", "coordinates": [78.010916, 26.467309]}, "properties": {"toll_name": "Choundha"}}, {"type": "Feature", "geometry": {"type": "Point", "coordinates": [78.110043, 28.767149]}, "properties": {"toll_name": "Brijghat"}}, {"type": "Feature", "geometry": {"type": "Point", "coordinates": [79.577976, 26.036608]}, "properties": {"toll_name": "Usaka ( Chamari)"}}, {"type": "Feature", "geometry": {"type": "Point", "coordinates": [75.938208, 22.822692]}, "properties": {"toll_name": "Indore Dewas  (Indore Bypass)"}}, {"type": "Feature", "geometry": {"type": "Point", "coordinates": [77.710995, 29.095601]}, "properties": {"toll_name": "Siwaya"}}, {"type": "Feature", "geometry": {"type": "Point", "coordinates": [82.994017, 25.248275]}, "properties": {"toll_name": "Daffi"}}, {"type": "Feature", "geometry": {"type": "Point", "coordinates": [83.559544, 25.19093]}, "properties": {"toll_name": "Mohania"}}, {"type": "Feature", "geometry": {"type": "Point", "coordinates": [83.954997, 24.957125]}, "properties": {"toll_name": "Sasaram"}}, {"type": "Feature", "geometry": {"type": "Point", "coordinates": [79.268034, 26.594931]}, "properties": {"toll_name": "Anantram"}}, {"type": "Feature", "geometry": {"type": "Point", "coordinates": [83.274398, 26.724015]}, "properties": {"toll_name": "Tendua (Gorakhpur Bypass)"}}, {"type": "Feature", "geometry": {"type": "Point", "coordinates": [80.021485, 26.386389]}, "properties": {"toll_name": "Barajore (Bara)"}}, {"type": "Feature", "geometry": {"type": "Point", "coordinates": [70.663976, 21.805381]}, "properties": {"toll_name": "Bharudi"}}, {"type": "Feature", "geometry": {"type": "Point", "coordinates": [70.781004, 22.082642]}, "properties": {"toll_name": "Pithadiya"}}, {"type": "Feature", "geometry": {"type": "Point", "coordinates": [72.95418, 21.303367]}, "properties": {"toll_name": "Choryasi"}}, {"type": "Feature", "geometry": {"type": "Point", "coordinates": [73.971381, 17.810312]}, "properties": {"toll_name": "Anewadi"}}, {"type": "Feature", "geometry": {"type": "Point", "coordinates": [78.330768, 11.66167]}, "properties": {"toll_name": "Mettupatti"}}, {"type": "Feature", "geometry": {"type": "Point", "coordinates": [77.3605999, 13.068175]}, "properties": {"toll_name": "Doddakarenahalli (Neelmangala )"}}, {"type": "Feature", "geometry": {"type": "Point", "coordinates": [78.99356, 11.396808]}, "properties": {"toll_name": "Thirumandurai"}}, {"type": "Feature", "geometry": {"type": "Point", "coordinates": [73.67379, 24.271438]}, "properties": {"toll_name": "Paduna"}}, {"type": "Feature", "geometry": {"type": "Point", "coordinates": [74.466193, 18.424491]}, "properties": {"toll_name": "Patas"}}, {"type": "Feature", "geometry": {"type": "Point", "coordinates": [74.944346, 32.607394]}, "properties": {"toll_name": "Thandikhui"}}, {"type": "Feature", "geometry": {"type": "Point", "coordinates": [78.755153, 20.450467]}, "properties": {"toll_name": "Daroda"}}, {"type": "Feature", "geometry": {"type": "Point", "coordinates": [70.49059, 23.308555]}, "properties": {"toll_name": "Samakhiyali"}}, {"type": "Feature", "geometry": {"type": "Point", "coordinates": [78.54022, 20.019307]}, "properties": {"toll_name": "Kelapur"}}, {"type": "Feature", "geometry": {"type": "Point", "coordinates": [77.788359, 20.951008]}, "properties": {"toll_name": "Nandgaon Peth"}}, {"type": "Feature", "geometry": {"type": "Point", "coordinates": [77.136059, 25.208647]}, "properties": {"toll_name": "Mundiyar"}}, {"type": "Feature", "geometry": {"type": "Point", "coordinates": [78.451052, 25.461841]}, "properties": {"toll_name": "Raksha"}}, {"type": "Feature", "geometry": {"type": "Point", "coordinates": [77.614165, 25.278913]}, "properties": {"toll_name": "Ramnagar"}}, {"type": "Feature", "geometry": {"type": "Point", "coordinates": [79.779856, 12.346862]}, "properties": {"toll_name": "Athur (Tindivanam)"}}, {"type": "Feature", "geometry": {"type": "Point", "coordinates": [80.149598, 13.043526]}, "properties": {"toll_name": "Vanagaram (Chennai Bypass)"}}, {"type": "Feature", "geometry": {"type": "Point", "coordinates": [82.731283, 26.810525]}, "properties": {"toll_name": "Mandawnagar"}}, {"type": "Feature", "geometry": {"type": "Point", "coordinates": [80.181624, 13.136678]}, "properties": {"toll_name": "Surapattu (Chennai Bypass II)"}}, {"type": "Feature", "geometry": {"type": "Point", "coordinates": [79.981917, 12.723887]}, "properties": {"toll_name": "Paranur (Chengalpet)"}}, {"type": "Feature", "geometry": {"type": "Point", "coordinates": [80.169353, 13.216958]}, "properties": {"toll_name": "Nallur"}}, {"type": "Feature", "geometry": {"type": "Point", "coordinates": [79.54517, 22.269661]}, "properties": {"toll_name": "Allonia"}}, {"type": "Feature", "geometry": {"type": "Point", "coordinates": [78.094492, 9.78299]}, "properties": {"toll_name": "Eliyarpathi"}}, {"type": "Feature", "geometry": {"type": "Point", "coordinates": [78.117106, 8.862935]}, "properties": {"toll_name": "Pudurpandiyapuram"}}, {"type": "Feature", "geometry": {"type": "Point", "coordinates": [77.26147, 24.620413]}, "properties": {"toll_name": "Guna Bypass"}}, {"type": "Feature", "geometry": {"type": "Point", "coordinates": [78.526217, 24.322069]}, "properties": {"toll_name": "Malthone"}}, {"type": "Feature", "geometry": {"type": "Point", "coordinates": [77.305485, 28.476208]}, "properties": {"toll_name": "Badarpur"}}, {"type": "Feature", "geometry": {"type": "Point", "coordinates": [79.047247, 23.233839]}, "properties": {"toll_name": "Titarpani"}}, {"type": "Feature", "geometry": {"type": "Point", "coordinates": [78.777334, 26.996524]}, "properties": {"toll_name": "Gurau (Semra Atikabad)"}}, {"type": "Feature", "geometry": {"type": "Point", "coordinates": [77.933397, 26.931976]}, "properties": {"toll_name": "Jajau (Old Baretha)"}}, {"type": "Feature", "geometry": {"type": "Point", "coordinates": [77.923946, 11.513282]}, "properties": {"toll_name": "Vaiguntham"}}, {"type": "Feature", "geometry": {"type": "Point", "coordinates": [70.942745, 23.490457]}, "properties": {"toll_name": "Makhel"}}, {"type": "Feature", "geometry": {"type": "Point", "coordinates": [77.519702, 11.245714]}, "properties": {"toll_name": "Vijaymangalmam"}}, {"type": "Feature", "geometry": {"type": "Point", "coordinates": [71.977168, 24.143855]}, "properties": {"toll_name": "Bhiladi"}}, {"type": "Feature", "geometry": {"type": "Point", "coordinates": [76.313542, 9.89525]}, "properties": {"toll_name": "Kumbalam"}}, {"type": "Feature", "geometry": {"type": "Point", "coordinates": [71.427652, 23.791263]}, "properties": {"toll_name": "Varahi"}}, {"type": "Feature", "geometry": {"type": "Point", "coordinates": [77.932875, 10.699008]}, "properties": {"toll_name": "Velanchettiyur"}}, {"type": "Feature", "geometry": {"type": "Point", "coordinates": [78.201132, 12.544583]}, "properties": {"toll_name": "Krishnagiri"}}, {"type": "Feature", "geometry": {"type": "Point", "coordinates": [79.538059, 12.024441]}, "properties": {"toll_name": "Vikravandi(Villupuram)"}}, {"type": "Feature", "geometry": {"type": "Point", "coordinates": [78.951686, 12.905829]}, "properties": {"toll_name": "Pallikonda"}}, {"type": "Feature", "geometry": {"type": "Point", "coordinates": [79.78836, 11.983278]}, "properties": {"toll_name": "Morattandi"}}, {"type": "Feature", "geometry": {"type": "Point", "coordinates": [78.5833, 12.648554]}, "properties": {"toll_name": "Vaniyambadi"}}, {"type": "Feature", "geometry": {"type": "Point", "coordinates": [77.663289, 8.527035]}, "properties": {"toll_name": "Nanguneri"}}, {"type": "Feature", "geometry": {"type": "Point", "coordinates": [77.909317, 10.194488]}, "properties": {"toll_name": "Kodai Road"}}, {"type": "Feature", "geometry": {"type": "Point", "coordinates": [77.416845, 27.178509]}, "properties": {"toll_name": "Ludhawai"}}, {"type": "Feature", "geometry": {"type": "Point", "coordinates": [77.914347, 9.385445]}, "properties": {"toll_name": "Etturvattam"}}, {"type": "Feature", "geometry": {"type": "Point", "coordinates": [78.011209, 9.844294]}, "properties": {"toll_name": "Kappalur"}}, {"type": "Feature", "geometry": {"type": "Point", "coordinates": [77.774608, 8.975702]}, "properties": {"toll_name": "Salaipudhur"}}, {"type": "Feature", "geometry": {"type": "Point", "coordinates": [76.260179, 10.442868]}, "properties": {"toll_name": "Paliyekkara"}}, {"type": "Feature", "geometry": {"type": "Point", "coordinates": [78.834044, 10.744371]}, "properties": {"toll_name": "Valavanthankottai"}}, {"type": "Feature", "geometry": {"type": "Point", "coordinates": [76.765205, 12.962828]}, "properties": {"toll_name": "Karbylu (Bellur Cross)"}}, {"type": "Feature", "geometry": {"type": "Point", "coordinates": [78.065264, 8.755472]}, "properties": {"toll_name": "Pudukottai (Vagaikulam)"}}, {"type": "Feature", "geometry": {"type": "Point", "coordinates": [78.744056, 10.92937]}, "properties": {"toll_name": "Samayapuram"}}, {"type": "Feature", "geometry": {"type": "Point", "coordinates": [79.322335, 11.706434]}, "properties": {"toll_name": "Sengurichi"}}, {"type": "Feature", "geometry": {"type": "Point", "coordinates": [77.715981, 27.114895]}, "properties": {"toll_name": "Korai"}}, {"type": "Feature", "geometry": {"type": "Point", "coordinates": [75.456797, 22.173782]}, "properties": {"toll_name": "Khalghat  (Indore - Khalghat)"}}, {"type": "Feature", "geometry": {"type": "Point", "coordinates": [85.022711, 26.451663]}, "properties": {"toll_name": "Parsoni Khem"}}, {"type": "Feature", "geometry": {"type": "Point", "coordinates": [74.939169, 26.595329]}, "properties": {"toll_name": "Kishangarh (Badgaon)"}}, {"type": "Feature", "geometry": {"type": "Point", "coordinates": [85.564827, 26.112648]}, "properties": {"toll_name": "Maithi"}}, {"type": "Feature", "geometry": {"type": "Point", "coordinates": [75.7415, 27.089775]}, "properties": {"toll_name": "Tatiyawas"}}, {"type": "Feature", "geometry": {"type": "Point", "coordinates": [74.692378, 31.617167]}, "properties": {"toll_name": "Chiddan"}}, {"type": "Feature", "geometry": {"type": "Point", "coordinates": [76.813037, 30.527449]}, "properties": {"toll_name": "Dappar"}}, {"type": "Feature", "geometry": {"type": "Point", "coordinates": [73.523999, 24.766166]}, "properties": {"toll_name": "Gogunda (Jaswantgarh)"}}, {"type": "Feature", "geometry": {"type": "Point", "coordinates": [76.568495, 30.842218]}, "properties": {"toll_name": "Kurali (Behrampur)"}}, {"type": "Feature", "geometry": {"type": "Point", "coordinates": [74.624379, 25.082922]}, "properties": {"toll_name": "Jojro Ka Khera"}}, {"type": "Feature", "geometry": {"type": "Point", "coordinates": [74.685331, 26.104125]}, "properties": {"toll_name": "Kedi"}}, {"type": "Feature", "geometry": {"type": "Point", "coordinates": [73.627895, 23.993636]}, "properties": {"toll_name": "Khandi Obari"}}, {"type": "Feature", "geometry": {"type": "Point", "coordinates": [74.233079, 24.613529]}, "properties": {"toll_name": "Narayanpura"}}, {"type": "Feature", "geometry": {"type": "Point", "coordinates": [73.093755, 24.712368]}, "properties": {"toll_name": "Malera"}}, {"type": "Feature", "geometry": {"type": "Point", "coordinates": [73.614819, 19.708905]}, "properties": {"toll_name": "Ghoti"}}, {"type": "Feature", "geometry": {"type": "Point", "coordinates": [71.088805, 22.42301]}, "properties": {"toll_name": "Vaghasia"}}, {"type": "Feature", "geometry": {"type": "Point", "coordinates": [75.598788, 32.382605]}, "properties": {"toll_name": "Lakhanpur/ Rajbagh"}}, {"type": "Feature", "geometry": {"type": "Point", "coordinates": [70.326793, 21.751451]}, "properties": {"toll_name": "Dhumiyani"}}, {"type": "Feature", "geometry": {"type": "Point", "coordinates": [74.210751, 20.325014]}, "properties": {"toll_name": "Chandwad"}}, {"type": "Feature", "geometry": {"type": "Point", "coordinates": [73.8525197, 18.3313849]}, "properties": {"toll_name": "Khedshivapur"}}, {"type": "Feature", "geometry": {"type": "Point", "coordinates": [73.976492, 20.141701]}, "properties": {"toll_name": "Baswant (Pimplegaon)"}}, {"type": "Feature", "geometry": {"type": "Point", "coordinates": [80.032855, 21.088119]}, "properties": {"toll_name": "Sendurwafa"}}, {"type": "Feature", "geometry": {"type": "Point", "coordinates": [74.889291, 21.319718]}, "properties": {"toll_name": "Shirpur"}}, {"type": "Feature", "geometry": {"type": "Point", "coordinates": [78.89666, 21.137001]}, "properties": {"toll_name": "Gondhkhairi/ Kondhali"}}, {"type": "Feature", "geometry": {"type": "Point", "coordinates": [76.897977, 30.738834]}, "properties": {"toll_name": "Chandimandir"}}, {"type": "Feature", "geometry": {"type": "Point", "coordinates": [76.621688, 28.776746]}, "properties": {"toll_name": "Dighal"}}, {"type": "Feature", "geometry": {"type": "Point", "coordinates": [75.323065, 31.499318]}, "properties": {"toll_name": "Dhilwan"}}, {"type": "Feature", "geometry": {"type": "Point", "coordinates": [76.613363, 28.275006]}, "properties": {"toll_name": "Gangaycha Jatt"}}, {"type": "Feature", "geometry": {"type": "Point", "coordinates": [74.997072, 31.577704]}, "properties": {"toll_name": "Nijjarpura"}}, {"type": "Feature", "geometry": {"type": "Point", "coordinates": [76.97014, 29.433664]}, "properties": {"toll_name": "Panipat Elevated"}}, {"type": "Feature", "geometry": {"type": "Point", "coordinates": [76.978792, 29.584373]}, "properties": {"toll_name": "Gharaunda (Karnal)"}}, {"type": "Feature", "geometry": {"type": "Point", "coordinates": [76.736825, 30.403832]}, "properties": {"toll_name": "Sambhu(Ghaggar)"}}, {"type": "Feature", "geometry": {"type": "Point", "coordinates": [75.790082, 30.990725]}, "properties": {"toll_name": "Ladowal"}}, {"type": "Feature", "geometry": {"type": "Point", "coordinates": [78.399287, 21.162103]}, "properties": {"toll_name": "Karanja (Ghadge)"}}, {"type": "Feature", "geometry": {"type": "Point", "coordinates": [77.332377, 28.00548]}, "properties": {"toll_name": "Srinagar"}}, {"type": "Feature", "geometry": {"type": "Point", "coordinates": [77.737458, 27.337188]}, "properties": {"toll_name": "Mahuvan"}}, {"type": "Feature", "geometry": {"type": "Point", "coordinates": [82.491513, 25.266948]}, "properties": {"toll_name": "Lalanagar"}}, {"type": "Feature", "geometry": {"type": "Point", "coordinates": [84.238336, 26.631703]}, "properties": {"toll_name": "Salemgarh"}}, {"type": "Feature", "geometry": {"type": "Point", "coordinates": [83.808555, 26.733855]}, "properties": {"toll_name": "Muziana Hetim"}}, {"type": "Feature", "geometry": {"type": "Point", "coordinates": [82.417008, 26.781312]}, "properties": {"toll_name": "Chaukadi"}}, {"type": "Feature", "geometry": {"type": "Point", "coordinates": [81.170481, 25.749487]}, "properties": {"toll_name": "Katoghan"}}, {"type": "Feature", "geometry": {"type": "Point", "coordinates": [85.140017, 19.638154]}, "properties": {"toll_name": "Gurapalli"}}, {"type": "Feature", "geometry": {"type": "Point", "coordinates": [86.165581, 20.678864]}, "properties": {"toll_name": "Srirampur"}}, {"type": "Feature", "geometry": {"type": "Point", "coordinates": [85.668597, 20.20348]}, "properties": {"toll_name": "Gudipada (Old Gangapada)"}}, {"type": "Feature", "geometry": {"type": "Point", "coordinates": [86.836645, 21.429889]}, "properties": {"toll_name": "Sergarh"}}, {"type": "Feature", "geometry": {"type": "Point", "coordinates": [86.21625, 20.897746]}, "properties": {"toll_name": "Panikholi"}}, {"type": "Feature", "geometry": {"type": "Point", "coordinates": [85.96387, 20.540387]}, "properties": {"toll_name": "Manguli"}}, {"type": "Feature", "geometry": {"type": "Point", "coordinates": [82.1107, 17.215448]}, "properties": {"toll_name": "Krishnavaram"}}, {"type": "Feature", "geometry": {"type": "Point", "coordinates": [78.409222, 19.28019]}, "properties": {"toll_name": "Rolmamda"}}, {"type": "Feature", "geometry": {"type": "Point", "coordinates": [78.471683, 17.801103]}, "properties": {"toll_name": "Manoharabad"}}, {"type": "Feature", "geometry": {"type": "Point", "coordinates": [78.362705, 19.026592]}, "properties": {"toll_name": "Gamjal"}}, {"type": "Feature", "geometry": {"type": "Point", "coordinates": [78.565772, 19.781093]}, "properties": {"toll_name": "Pippalwada"}}, {"type": "Feature", "geometry": {"type": "Point", "coordinates": [85.503153, 23.542635]}, "properties": {"toll_name": "Pundag"}}, {"type": "Feature", "geometry": {"type": "Point", "coordinates": [76.557567, 26.944488]}, "properties": {"toll_name": "Sikandra"}}, {"type": "Feature", "geometry": {"type": "Point", "coordinates": [76.105596, 26.859184]}, "properties": {"toll_name": "Rajadhok"}}, {"type": "Feature", "geometry": {"type": "Point", "coordinates": [77.090874, 27.101301]}, "properties": {"toll_name": "Amoli"}}, {"type": "Feature", "geometry": {"type": "Point", "coordinates": [75.615578, 26.843328]}, "properties": {"toll_name": "Thikariya (Jaipur)"}}, {"type": "Feature", "geometry": {"type": "Point", "coordinates": [75.904726, 26.68816]}, "properties": {"toll_name": "Barkheda (Chandlai)"}}, {"type": "Feature", "geometry": {"type": "Point", "coordinates": [75.744832, 26.109852]}, "properties": {"toll_name": "Sonwa (Sonva)"}}, {"type": "Feature", "geometry": {"type": "Point", "coordinates": [74.5948394, 25.5938407]}, "properties": {"toll_name": "Lambiya Kalan"}}, {"type": "Feature", "geometry": {"type": "Point", "coordinates": [77.770734, 13.059436]}, "properties": {"toll_name": "Hoskote"}}, {"type": "Feature", "geometry": {"type": "Point", "coordinates": [77.764384, 13.793094]}, "properties": {"toll_name": "Bagepalli"}}, {"type": "Feature", "geometry": {"type": "Point", "coordinates": [76.623563, 12.958304]}, "properties": {"toll_name": "Kirasave"}}, {"type": "Feature", "geometry": {"type": "Point", "coordinates": [76.228913, 12.982709]}, "properties": {"toll_name": "Shanthigrama"}}, {"type": "Feature", "geometry": {"type": "Point", "coordinates": [74.940536, 32.838928]}, "properties": {"toll_name": "Bann"}}, {"type": "Feature", "geometry": {"type": "Point", "coordinates": [75.614278, 32.058621]}, "properties": {"toll_name": "Harsa Mansar"}}, {"type": "Feature", "geometry": {"type": "Point", "coordinates": [73.165874, 19.361481]}, "properties": {"toll_name": "Arjunali"}}, {"type": "Feature", "geometry": {"type": "Point", "coordinates": [79.253327, 21.382332]}, "properties": {"toll_name": "Mansar (Kamptee - Kanhan Bypass)/ Tekadi"}}, {"type": "Feature", "geometry": {"type": "Point", "coordinates": [78.963632, 20.85612]}, "properties": {"toll_name": "Borkhedi (Nagpur ByPass)"}}, {"type": "Feature", "geometry": {"type": "Point", "coordinates": [74.754192, 20.833054]}, "properties": {"toll_name": "Laling (Dhule)"}}, {"type": "Feature", "geometry": {"type": "Point", "coordinates": [69.709536, 21.664929]}, "properties": {"toll_name": "Vanana"}}, {"type": "Feature", "geometry": {"type": "Point", "coordinates": [79.210298, 25.879908]}, "properties": {"toll_name": "Ait"}}, {"type": "Feature", "geometry": {"type": "Point", "coordinates": [78.448812, 24.789564]}, "properties": {"toll_name": "Vighakhet"}}, {"type": "Feature", "geometry": {"type": "Point", "coordinates": [72.462709, 24.241335]}, "properties": {"toll_name": "Khemana"}}, {"type": "Feature", "geometry": {"type": "Point", "coordinates": [83.52111, 18.05799]}, "properties": {"toll_name": "Laxmipuram"}}, {"type": "Feature", "geometry": {"type": "Point", "coordinates": [86.153489, 26.225984]}, "properties": {"toll_name": "Raje(Old Naraur)"}}, {"type": "Feature", "geometry": {"type": "Point", "coordinates": [83.807965, 18.273462]}, "properties": {"toll_name": "Chilakapalem"}}, {"type": "Feature", "geometry": {"type": "Point", "coordinates": [78.239734, 18.538266]}, "properties": {"toll_name": "Indalwai"}}, {"type": "Feature", "geometry": {"type": "Point", "coordinates": [73.09453, 18.844903]}, "properties": {"toll_name": "Sardewadi / Indapur"}}, {"type": "Feature", "geometry": {"type": "Point", "coordinates": [80.752729, 27.503818]}, "properties": {"toll_name": "Itunja (Barabhari)"}}, {"type": "Feature", "geometry": {"type": "Point", "coordinates": [81.422445, 26.858314]}, "properties": {"toll_name": "Ahmadpur"}}, {"type": "Feature", "geometry": {"type": "Point", "coordinates": [82.006302, 26.763728]}, "properties": {"toll_name": "Ronahi"}}, {"type": "Feature", "geometry": {"type": "Point", "coordinates": [80.694765, 26.623172]}, "properties": {"toll_name": "Nawabganj"}}, {"type": "Feature", "geometry": {"type": "Point", "coordinates": [76.430522, 27.99978]}, "properties": {"toll_name": "Shahjahanpur"}}, {"type": "Feature", "geometry": {"type": "Point", "coordinates": [75.9535128, 27.3056399]}, "properties": {"toll_name": "Manoharpur"}}, {"type": "Feature", "geometry": {"type": "Point", "coordinates": [75.8345568, 27.0868994]}, "properties": {"toll_name": "Daulatpura"}}, {"type": "Feature", "geometry": {"type": "Point", "coordinates": [78.194493, 17.005867]}, "properties": {"toll_name": "Raikal"}}, {"type": "Feature", "geometry": {"type": "Point", "coordinates": [77.944453, 16.535645]}, "properties": {"toll_name": "Shakhapur"}}, {"type": "Feature", "geometry": {"type": "Point", "coordinates": [78.8217, 17.485724]}, "properties": {"toll_name": "Gudur (Hyd-Yadgiri)"}}, {"type": "Feature", "geometry": {"type": "Point", "coordinates": [78.016978, 15.887742]}, "properties": {"toll_name": "Pullur"}}, {"type": "Feature", "geometry": {"type": "Point", "coordinates": [82.67582, 17.397831]}, "properties": {"toll_name": "Vempadu"}}, {"type": "Feature", "geometry": {"type": "Point", "coordinates": [78.960464, 17.232887]}, "properties": {"toll_name": "Panthangi"}}, {"type": "Feature", "geometry": {"type": "Point", "coordinates": [88.275366, 26.568967]}, "properties": {"toll_name": "Paschim Madati"}}, {"type": "Feature", "geometry": {"type": "Point", "coordinates": [87.39207, 22.24076]}, "properties": {"toll_name": "Rampura"}}, {"type": "Feature", "geometry": {"type": "Point", "coordinates": [85.3881, 24.3234]}, "properties": {"toll_name": "Rasoiya Dhamna"}}, {"type": "Feature", "geometry": {"type": "Point", "coordinates": [85.948614, 24.030104]}, "properties": {"toll_name": "Ghanghri"}}, {"type": "Feature", "geometry": {"type": "Point", "coordinates": [80.324314, 16.718077]}, "properties": {"toll_name": "Keesara"}}, {"type": "Feature", "geometry": {"type": "Point", "coordinates": [80.53367, 16.3856]}, "properties": {"toll_name": "Kaza"}}, {"type": "Feature", "geometry": {"type": "Point", "coordinates": [79.894624, 14.059589]}, "properties": {"toll_name": "Budhanam"}}, {"type": "Feature", "geometry": {"type": "Point", "coordinates": [77.631127, 14.499817]}, "properties": {"toll_name": "Marur"}}, {"type": "Feature", "geometry": {"type": "Point", "coordinates": [87.522855, 22.397144]}, "properties": {"toll_name": "Debra"}}, {"type": "Feature", "geometry": {"type": "Point", "coordinates": [87.869477, 22.335479]}, "properties": {"toll_name": "Sonapetya"}}, {"type": "Feature", "geometry": {"type": "Point", "coordinates": [84.699281, 19.111282]}, "properties": {"toll_name": "Bellupada"}}, {"type": "Feature", "geometry": {"type": "Point", "coordinates": [84.000528, 18.377344]}, "properties": {"toll_name": "Madapam"}}, {"type": "Feature", "geometry": {"type": "Point", "coordinates": [83.149931, 17.685435]}, "properties": {"toll_name": "Aganampudi"}}, {"type": "Feature", "geometry": {"type": "Point", "coordinates": [86.034744, 25.250014]}, "properties": {"toll_name": "Balgudar"}}, {"type": "Feature", "geometry": {"type": "Point", "coordinates": [84.70284, 24.599579]}, "properties": {"toll_name": "Saukala"}}, {"type": "Feature", "geometry": {"type": "Point", "coordinates": [78.257067, 10.536361]}, "properties": {"toll_name": "Ponnambalapatti"}}, {"type": "Feature", "geometry": {"type": "Point", "coordinates": [83.212186, 17.713856]}, "properties": {"toll_name": "Main Toll (Panchvati colony) (Sheela Nagar)"}}, {"type": "Feature", "geometry": {"type": "Point", "coordinates": [75.739648, 16.786741]}, "properties": {"toll_name": "Kasaba (Bijapur)"}}, {"type": "Feature", "geometry": {"type": "Point", "coordinates": [79.916296, 14.312218]}, "properties": {"toll_name": "Venkatachalam (Old Nellore)"}}, {"type": "Feature", "geometry": {"type": "Point", "coordinates": [72.907078, 24.633512]}, "properties": {"toll_name": "Undavariya/ Sirohi"}}, {"type": "Feature", "geometry": {"type": "Point", "coordinates": [76.084165, 22.959586]}, "properties": {"toll_name": "Indore Dewas (Indore side)"}}, {"type": "Feature", "geometry": {"type": "Point", "coordinates": [83.521081, 18.057967]}, "properties": {"toll_name": "Nathavalasa/ Vizianagaram"}}, {"type": "Feature", "geometry": {"type": "Point", "coordinates": [80.862502, 16.572341]}, "properties": {"toll_name": "Pottipadu"}}, {"type": "Feature", "geometry": {"type": "Point", "coordinates": [81.022129, 16.676408]}, "properties": {"toll_name": "Kalaparru"}}, {"type": "Feature", "geometry": {"type": "Point", "coordinates": [79.990993, 13.744936]}, "properties": {"toll_name": "Sullurpet"}}, {"type": "Feature", "geometry": {"type": "Point", "coordinates": [79.987757, 14.851896]}, "properties": {"toll_name": "Sunambatti (Musunuru)"}}, {"type": "Feature", "geometry": {"type": "Point", "coordinates": [80.070843, 15.886754]}, "properties": {"toll_name": "Bolapalli"}}, {"type": "Feature", "geometry": {"type": "Point", "coordinates": [80.040105, 15.358166]}, "properties": {"toll_name": "Tanguturu"}}, {"type": "Feature", "geometry": {"type": "Point", "coordinates": [77.630325, 15.061783]}, "properties": {"toll_name": "Kasepalli"}}, {"type": "Feature", "geometry": {"type": "Point", "coordinates": [74.122928, 17.365756]}, "properties": {"toll_name": "Tasawade"}}, {"type": "Feature", "geometry": {"type": "Point", "coordinates": [74.2983001, 16.8767054]}, "properties": {"toll_name": "Kini"}}, {"type": "Feature", "geometry": {"type": "Point", "coordinates": [77.897632, 15.48468]}, "properties": {"toll_name": "Amakathadu"}}, {"type": "Feature", "geometry": {"type": "Point", "coordinates": [71.783991, 23.912341]}, "properties": {"toll_name": "Bhalgam (Belgaum)"}}, {"type": "Feature", "geometry": {"type": "Point", "coordinates": [77.652944, 13.1955]}, "properties": {"toll_name": "Laxmannath"}}, {"type": "Feature", "geometry": {"type": "Point", "coordinates": [75.331066, 17.957588]}, "properties": {"toll_name": "Varwade"}}, {"type": "Feature", "geometry": {"type": "Point", "coordinates": [78.240691, 26.197589]}, "properties": {"toll_name": "Gwalior Bypass (Mehra)"}}, {"type": "Feature", "geometry": {"type": "Point", "coordinates": [70.689457, 23.233738]}, "properties": {"toll_name": "Surajbari"}}, {"type": "Feature", "geometry": {"type": "Point", "coordinates": [75.75589, 17.764629]}, "properties": {"toll_name": "Sawaleshwar"}}, {"type": "Feature", "geometry": {"type": "Point", "coordinates": [78.809133, 23.725268]}, "properties": {"toll_name": "Chitora"}}, {"type": "Feature", "geometry": {"type": "Point", "coordinates": [79.464288, 23.780036]}, "properties": {"toll_name": "Bakoli"}}, {"type": "Feature", "geometry": {"type": "Point", "coordinates": [76.560573, 14.053778]}, "properties": {"toll_name": "Guilalu"}}, {"type": "Feature", "geometry": {"type": "Point", "coordinates": [76.953866, 13.612918]}, "properties": {"toll_name": "Karjeevanhalli"}}, {"type": "Feature", "geometry": {"type": "Point", "coordinates": [77.649812, 13.19355]}, "properties": {"toll_name": "Navayuga Devanahalli / Sadahalli / Pujanahalli"}}, {"type": "Feature", "geometry": {"type": "Point", "coordinates": [77.161956, 13.302065]}, "properties": {"toll_name": "Kaythsandra/Tumkur/Chokkanahalli"}}, {"type": "Feature", "geometry": {"type": "Point", "coordinates": [76.98176, 28.395604]}, "properties": {"toll_name": "Kherki Daula"}}, {"type": "Feature", "geometry": {"type": "Point", "coordinates": [88.026395, 23.178722]}, "properties": {"toll_name": "Palsit"}}, {"type": "Feature", "geometry": {"type": "Point", "coordinates": [80.585425, 26.126972]}, "properties": {"toll_name": "Badauri"}}, {"type": "Feature", "geometry": {"type": "Point", "coordinates": [88.325118, 22.654373]}, "properties": {"toll_name": "Nivedita Setu"}}, {"type": "Feature", "geometry": {"type": "Point", "coordinates": [88.288862, 22.698891]}, "properties": {"toll_name": "Dankuni"}}, {"type": "Feature", "geometry": {"type": "Point", "coordinates": [88.181739, 22.57319]}, "properties": {"toll_name": "Jaladhulagori (Dhulagarh)"}}, {"type": "Feature", "geometry": {"type": "Point", "coordinates": [87.843205, 25.933485]}, "properties": {"toll_name": "Surjapur"}}, {"type": "Feature", "geometry": {"type": "Point", "coordinates": [86.79803, 23.763627]}, "properties": {"toll_name": "Beliyad"}}, {"type": "Feature", "geometry": {"type": "Point", "coordinates": [87.445216, 26.152636]}, "properties": {"toll_name": "Hariabara"}}, {"type": "Feature", "geometry": {"type": "Point", "coordinates": [87.59074, 25.804671]}, "properties": {"toll_name": "Barsoni"}}, {"type": "Feature", "geometry": {"type": "Point", "coordinates": [87.01154, 25.385796]}, "properties": {"toll_name": "Kharik"}}, {"type": "Feature", "geometry": {"type": "Point", "coordinates": [87.458249, 25.728646]}, "properties": {"toll_name": "Maranga"}}, {"type": "Feature", "geometry": {"type": "Point", "coordinates": [73.052162, 20.885548]}, "properties": {"toll_name": "Boriach"}}, {"type": "Feature", "geometry": {"type": "Point", "coordinates": [72.917204, 20.43495]}, "properties": {"toll_name": "Bhagwada"}}, {"type": "Feature", "geometry": {"type": "Point", "coordinates": [72.942644, 19.890544]}, "properties": {"toll_name": "Charoti"}}, {"type": "Feature", "geometry": {"type": "Point", "coordinates": [72.916883, 19.520454]}, "properties": {"toll_name": "Khaniwade"}}, {"type": "Feature", "geometry": {"type": "Point", "coordinates": [76.918442, 29.31922]}, "properties": {"toll_name": "Dahar"}}, {"type": "Feature", "geometry": {"type": "Point", "coordinates": [76.609736, 28.944307]}, "properties": {"toll_name": "Makrauli Kalan"}}, {"type": "Feature", "geometry": {"type": "Point", "coordinates": [86.630217, 26.299831]}, "properties": {"toll_name": "Asanpur"}}, {"type": "Feature", "geometry": {"type": "Point", "coordinates": [76.106875, 14.375564]}, "properties": {"toll_name": "Hebbalu"}}, {"type": "Feature", "geometry": {"type": "Point", "coordinates": [79.40121, 12.910943]}, "properties": {"toll_name": "Chennasamudram"}}, {"type": "Feature", "geometry": {"type": "Point", "coordinates": [74.785116, 21.050995]}, "properties": {"toll_name": "Songir"}}, {"type": "Feature", "geometry": {"type": "Point", "coordinates": [77.115435, 28.543853]}, "properties": {"toll_name": "IGI Airport"}}, {"type": "Feature", "geometry": {"type": "Point", "coordinates": [76.312781, 15.357898]}, "properties": {"toll_name": "Shahapur"}}, {"type": "Feature", "geometry": {"type": "Point", "coordinates": [75.923324, 16.290681]}, "properties": {"toll_name": "Vanagari"}}, {"type": "Feature", "geometry": {"type": "Point", "coordinates": [73.115049, 22.015027]}, "properties": {"toll_name": "BharthanKarjan"}}, {"type": "Feature", "geometry": {"type": "Point", "coordinates": [92.047612, 25.648846]}, "properties": {"toll_name": "Deingpasoh"}}, {"type": "Feature", "geometry": {"type": "Point", "coordinates": [78.557668, 10.885791]}, "properties": {"toll_name": "Thirupparaithurai"}}, {"type": "Feature", "geometry": {"type": "Point", "coordinates": [78.215268, 10.930934]}, "properties": {"toll_name": "Manavasi"}}, {"type": "Feature", "geometry": {"type": "Point", "coordinates": [78.747767, 10.624244]}, "properties": {"toll_name": "Lechchumanapatti"}}, {"type": "Feature", "geometry": {"type": "Point", "coordinates": [73.254472, 23.61615]}, "properties": {"toll_name": "Vantada"}}, {"type": "Feature", "geometry": {"type": "Point", "coordinates": [72.828618, 23.410181]}, "properties": {"toll_name": "Kathpur"}}, {"type": "Feature", "geometry": {"type": "Point", "coordinates": [78.770713, 10.299776]}, "properties": {"toll_name": "Lambalakudi"}}, {"type": "Feature", "geometry": {"type": "Point", "coordinates": [72.650399, 22.975844]}, "properties": {"toll_name": "Ahmedabad Vadodra Expressways"}}, {"type": "Feature", "geometry": {"type": "Point", "coordinates": [77.777119, 12.776883]}, "properties": {"toll_name": "Attibele (BETL)"}}, {"type": "Feature", "geometry": {"type": "Point", "coordinates": [77.37463, 13.114638]}, "properties": {"toll_name": "Neelamangala  - Tumkur /Kulumepalya"}}, {"type": "Feature", "geometry": {"type": "Point", "coordinates": [77.670866, 12.847667]}, "properties": {"toll_name": "Elevated Section/ Electronic City"}}, {"type": "Feature", "geometry": {"type": "Point", "coordinates": [75.921069, 16.292989]}, "properties": {"toll_name": "Nagarhalla"}}, {"type": "Feature", "geometry": {"type": "Point", "coordinates": [75.139696, 15.318834]}, "properties": {"toll_name": "Gabbur (MoRTH)"}}, {"type": "Feature", "geometry": {"type": "Point", "coordinates": [74.969857, 15.488902]}, "properties": {"toll_name": "Narendra (MoRTH)"}}, {"type": "Feature", "geometry": {"type": "Point", "coordinates": [79.215127, 9.283225]}, "properties": {"toll_name": "Pamban Bridge (MoRTH)"}}, {"type": "Feature", "geometry": {"type": "Point", "coordinates": [92.869461, 26.567367]}, "properties": {"toll_name": "Kalia Bhomora Bridge (MoRTH)"}}, {"type": "Feature", "geometry": {"type": "Point", "coordinates": [89.811537, 26.149881]}, "properties": {"toll_name": "Gangadhar Bridge (MoRTH)"}}, {"type": "Feature", "geometry": {"type": "Point", "coordinates": [73.904897, 25.592575]}, "properties": {"toll_name": "Baggad (MoRTH)"}}, {"type": "Feature", "geometry": {"type": "Point", "coordinates": [74.160275, 25.884014]}, "properties": {"toll_name": "Bagaliya (MoRTH)"}}, {"type": "Feature", "geometry": {"type": "Point", "coordinates": [72.161496, 22.620565]}, "properties": {"toll_name": "Bagodara (MoRTH)"}}, {"type": "Feature", "geometry": {"type": "Point", "coordinates": [73.094525, 18.844713]}, "properties": {"toll_name": "Kharpada (MoRTH)"}}, {"type": "Feature", "geometry": {"type": "Point", "coordinates": [77.148301, 31.898237]}, "properties": {"toll_name": "Jia Bridge (MoRTH)"}}, {"type": "Feature", "geometry": {"type": "Point", "coordinates": [73.462503, 18.084885]}, "properties": {"toll_name": "Savitri (MoRTH)"}}, {"type": "Feature", "geometry": {"type": "Point", "coordinates": [75.670495, 21.013505]}, "properties": {"toll_name": "Nashirabad (MoRTH)"}}, {"type": "Feature", "geometry": {"type": "Point", "coordinates": [75.829168, 21.039996]}, "properties": {"toll_name": "Fekri (MoRTH)"}}, {"type": "Feature", "geometry": {"type": "Point", "coordinates": [73.006946, 19.2121]}, "properties": {"toll_name": "Kharegaon (MoRTH)"}}, {"type": "Feature", "geometry": {"type": "Point", "coordinates": [73.823404, 18.605613]}, "properties": {"toll_name": "Moshi (MoRTH)"}}, {"type": "Feature", "geometry": {"type": "Point", "coordinates": [77.071876, 23.471246]}, "properties": {"toll_name": "Parvati Bridge (MoRTH)"}}, {"type": "Feature", "geometry": {"type": "Point", "coordinates": [73.881986, 18.844296]}, "properties": {"toll_name": "Chandloi/ Rajgurunagar (MoRTH)"}}, {"type": "Feature", "geometry": {"type": "Point", "coordinates": [80.384806, 23.888883]}, "properties": {"toll_name": "Ashoka DSC Katni bypass (MoRTH)"}}, {"type": "Feature", "geometry": {"type": "Point", "coordinates": [73.992593, 18.493223]}, "properties": {"toll_name": "Kawdipath (MoRTH)"}}, {"type": "Feature", "geometry": {"type": "Point", "coordinates": [74.234706, 18.48286]}, "properties": {"toll_name": "Kasurdi (MoRTH)"}}, {"type": "Feature", "geometry": {"type": "Point", "coordinates": [81.346796, 24.550197]}, "properties": {"toll_name": "Koshta (MoRTH)"}}, {"type": "Feature", "geometry": {"type": "Point", "coordinates": [79.675405, 21.139568]}, "properties": {"toll_name": "Kardha (MoRTH)"}}, {"type": "Feature", "geometry": {"type": "Point", "coordinates": [78.066995, 21.086207]}, "properties": {"toll_name": "Tiwasa (MoRTH)"}}, {"type": "Feature", "geometry": {"type": "Point", "coordinates": [74.823119, 21.181762]}, "properties": {"toll_name": "Nardana (MoRTH)"}}, {"type": "Feature", "geometry": {"type": "Point", "coordinates": [78.272518, 26.320743]}, "properties": {"toll_name": "Baretha (MoRTH)"}}, {"type": "Feature", "geometry": {"type": "Point", "coordinates": [75.880075, 17.534301]}, "properties": {"toll_name": "Wadakbal (MoRTH)"}}, {"type": "Feature", "geometry": {"type": "Point", "coordinates": [78.917937, 26.683159]}, "properties": {"toll_name": "Barahi (MoRTH)"}}, {"type": "Feature", "geometry": {"type": "Point", "coordinates": [71.015587, 22.409684]}, "properties": {"toll_name": "Bamanbore (MoRTH)"}}, {"type": "Feature", "geometry": {"type": "Point", "coordinates": [78.273342, 17.523428]}, "properties": {"toll_name": "Patancheru (Prograssive Construction Toll) (MoRTH)"}}, {"type": "Feature", "geometry": {"type": "Point", "coordinates": [78.19098, 29.842349]}, "properties": {"toll_name": "Rawason Bridge (MoRTH)"}}, {"type": "Feature", "geometry": {"type": "Point", "coordinates": [81.812198, 21.766145]}, "properties": {"toll_name": "Nandghat Bridge (MoRTH)"}}, {"type": "Feature", "geometry": {"type": "Point", "coordinates": [81.536664, 21.252543]}, "properties": {"toll_name": "Kharun (MoRTH)"}}, {"type": "Feature", "geometry": {"type": "Point", "coordinates": [81.337106, 21.204731]}, "properties": {"toll_name": "Kosa Nala (MoRTH)"}}, {"type": "Feature", "geometry": {"type": "Point", "coordinates": [76.318202, 9.94307]}, "properties": {"toll_name": "Kundannur (MoRTH)"}}, {"type": "Feature", "geometry": {"type": "Point", "coordinates": [76.89465, 8.520122]}, "properties": {"toll_name": "Akkulam (MoRTH)"}}, {"type": "Feature", "geometry": {"type": "Point", "coordinates": [76.28012, 10.074058]}, "properties": {"toll_name": "Varapuzha Bridge (MoRTH)"}}, {"type": "Feature", "geometry": {"type": "Point", "coordinates": [73.842871, 22.792886]}, "properties": {"toll_name": "Bhatwada (Godhra)"}}, {"type": "Feature", "geometry": {"type": "Point", "coordinates": [75.640462, 31.623756]}, "properties": {"toll_name": "Chollang"}}, {"type": "Feature", "geometry": {"type": "Point", "coordinates": [80.160654, 16.885015]}, "properties": {"toll_name": "Chillakallu"}}, {"type": "Feature", "geometry": {"type": "Point", "coordinates": [79.474848, 17.159677]}, "properties": {"toll_name": "Korlaphadu"}}, {"type": "Feature", "geometry": {"type": "Point", "coordinates": [76.303646, 15.323649]}, "properties": {"toll_name": "Hitnal"}}, {"type": "Feature", "geometry": {"type": "Point", "coordinates": [78.087022, 27.804002]}, "properties": {"toll_name": "Madrak"}}, {"type": "Feature", "geometry": {"type": "Point", "coordinates": [78.032201, 27.346247]}, "properties": {"toll_name": "Baros"}}, {"type": "Feature", "geometry": {"type": "Point", "coordinates": [80.661034, 27.558744]}, "properties": {"toll_name": "Khairabad (Karondi)"}}, {"type": "Feature", "geometry": {"type": "Point", "coordinates": [72.957428, 22.413798]}, "properties": {"toll_name": "Pithai"}}, {"type": "Feature", "geometry": {"type": "Point", "coordinates": [73.533274, 22.792571]}, "properties": {"toll_name": "Vavadikhurd"}}, {"type": "Feature", "geometry": {"type": "Point", "coordinates": [78.290548, 13.148469]}, "properties": {"toll_name": "Mulbagal"}}, {"type": "Feature", "geometry": {"type": "Point", "coordinates": [88.019993, 24.563182]}, "properties": {"toll_name": "Kishorpur (Chandermore)"}}, {"type": "Feature", "geometry": {"type": "Point", "coordinates": [88.18629, 24.150449]}, "properties": {"toll_name": "Gopgram (Shibpur)"}}, {"type": "Feature", "geometry": {"type": "Point", "coordinates": [78.464471, 25.216966]}, "properties": {"toll_name": "Babina"}}, {"type": "Feature", "geometry": {"type": "Point", "coordinates": [90.712054, 26.476288]}, "properties": {"toll_name": "Dahalapara"}}, {"type": "Feature", "geometry": {"type": "Point", "coordinates": [78.902248, 28.814182]}, "properties": {"toll_name": "Niyamatpur Ekrotiya"}}, {"type": "Feature", "geometry": {"type": "Point", "coordinates": [79.283886, 28.480289]}, "properties": {"toll_name": "Thriyakhetal"}}, {"type": "Feature", "geometry": {"type": "Point", "coordinates": [89.756535, 26.476592]}, "properties": {"toll_name": "Guabari"}}, {"type": "Feature", "geometry": {"type": "Point", "coordinates": [79.418722, 22.043538]}, "properties": {"toll_name": "Fulara"}}, {"type": "Feature", "geometry": {"type": "Point", "coordinates": [78.433316, 21.841921]}, "properties": {"toll_name": "Chikhalikala"}}, {"type": "Feature", "geometry": {"type": "Point", "coordinates": [79.151021, 22.377896]}, "properties": {"toll_name": "Jungawani"}}, {"type": "Feature", "geometry": {"type": "Point", "coordinates": [79.600413, 22.548497]}, "properties": {"toll_name": "Jaitpur"}}, {"type": "Feature", "geometry": {"type": "Point", "coordinates": [81.066094, 26.524482]}, "properties": {"toll_name": "Dakhina Sekhpur"}}, {"type": "Feature", "geometry": {"type": "Point", "coordinates": [78.8726, 21.471322]}, "properties": {"toll_name": "Kelwad"}}, {"type": "Feature", "geometry": {"type": "Point", "coordinates": [76.798051, 10.81311]}, "properties": {"toll_name": "Chullimada Hamlet (Pampampallam)"}}, {"type": "Feature", "geometry": {"type": "Point", "coordinates": [80.163011, 26.069752]}, "properties": {"toll_name": "Aliyapur"}}, {"type": "Feature", "geometry": {"type": "Point", "coordinates": [80.060095, 25.543293]}, "properties": {"toll_name": "Khanna"}}, {"type": "Feature", "geometry": {"type": "Point", "coordinates": [83.681021, 21.35447]}, "properties": {"toll_name": "Baragarh (Barhaguda)"}}, {"type": "Feature", "geometry": {"type": "Point", "coordinates": [76.257977, 10.010336]}, "properties": {"toll_name": "Ponnarimangalam"}}, {"type": "Feature", "geometry": {"type": "Point", "coordinates": [75.533697, 32.197881]}, "properties": {"toll_name": "Ladpalwan"}}, {"type": "Feature", "geometry": {"type": "Point", "coordinates": [75.041365, 31.731947]}, "properties": {"toll_name": "Waryam Nangal"}}, {"type": "Feature", "geometry": {"type": "Point", "coordinates": [85.247807, 25.570828]}, "properties": {"toll_name": "Deederganj"}}, {"type": "Feature", "geometry": {"type": "Point", "coordinates": [75.348401, 27.50603]}, "properties": {"toll_name": "Akhepura"}}, {"type": "Feature", "geometry": {"type": "Point", "coordinates": [77.961508, 21.864457]}, "properties": {"toll_name": "Milanpur"}}, {"type": "Feature", "geometry": {"type": "Point", "coordinates": [78.387824, 21.693812]}, "properties": {"toll_name": "Khambara"}}, {"type": "Feature", "geometry": {"type": "Point", "coordinates": [79.009038, 21.343724]}, "properties": {"toll_name": "Patanswangi"}}, {"type": "Feature", "geometry": {"type": "Point", "coordinates": [74.780202, 26.551347]}, "properties": {"toll_name": "Gegal"}}, {"type": "Feature", "geometry": {"type": "Point", "coordinates": [74.371725, 26.158466]}, "properties": {"toll_name": "Pipalaz"}}, {"type": "Feature", "geometry": {"type": "Point", "coordinates": [70.295437, 21.425234]}, "properties": {"toll_name": "Gadoi"}}, {"type": "Feature", "geometry": {"type": "Point", "coordinates": [70.334349, 20.961287]}, "properties": {"toll_name": "Dari"}}, {"type": "Feature", "geometry": {"type": "Point", "coordinates": [92.541521, 26.245678]}, "properties": {"toll_name": "Raha(Saragaon)"}}, {"type": "Feature", "geometry": {"type": "Point", "coordinates": [92.875479, 26.114657]}, "properties": {"toll_name": "Daboka"}}, {"type": "Feature", "geometry": {"type": "Point", "coordinates": [91.879125, 26.100258]}, "properties": {"toll_name": "Nazira Khat"}}, {"type": "Feature", "geometry": {"type": "Point", "coordinates": [73.478511, 21.134676]}, "properties": {"toll_name": "Mandal (Vyara)"}}, {"type": "Feature", "geometry": {"type": "Point", "coordinates": [72.869085, 21.190249]}, "properties": {"toll_name": "Bhatia"}}, {"type": "Feature", "geometry": {"type": "Point", "coordinates": [77.629298, 28.497746]}, "properties": {"toll_name": "Luharali"}}, {"type": "Feature", "geometry": {"type": "Point", "coordinates": [77.946047, 28.062821]}, "properties": {"toll_name": "Somna"}}, {"type": "Feature", "geometry": {"type": "Point", "coordinates": [81.905328, 21.20296]}, "properties": {"toll_name": "Lakholi"}}, {"type": "Feature", "geometry": {"type": "Point", "coordinates": [81.607029, 21.229353]}, "properties": {"toll_name": "Sundar Nagar"}}, {"type": "Feature", "geometry": {"type": "Point", "coordinates": [74.05947, 26.063535]}, "properties": {"toll_name": "Raipur"}}, {"type": "Feature", "geometry": {"type": "Point", "coordinates": [73.45492, 25.828286]}, "properties": {"toll_name": "Indranagar"}}, {"type": "Feature", "geometry": {"type": "Point", "coordinates": [73.201486, 25.371114]}, "properties": {"toll_name": "Birami"}}, {"type": "Feature", "geometry": {"type": "Point", "coordinates": [72.94353, 25.033571]}, "properties": {"toll_name": "Uthamam"}}, {"type": "Feature", "geometry": {"type": "Point", "coordinates": [78.545197, 13.194218]}, "properties": {"toll_name": "Gaddurur"}}, {"type": "Feature", "geometry": {"type": "Point", "coordinates": [79.365105, 21.139545]}, "properties": {"toll_name": "WEPL Mathani"}}, {"type": "Feature", "geometry": {"type": "Point", "coordinates": [85.493984, 26.373615]}, "properties": {"toll_name": "Runni"}}, {"type": "Feature", "geometry": {"type": "Point", "coordinates": [79.532925, 13.525577]}, "properties": {"toll_name": "S V Puram"}}, {"type": "Feature", "geometry": {"type": "Point", "coordinates": [79.834675, 13.150776]}, "properties": {"toll_name": "Pattaraiperumbudur (temporary TP)"}}, {"type": "Feature", "geometry": {"type": "Point", "coordinates": [85.83902, 20.137113]}, "properties": {"toll_name": "Paat Sahanipur (Pipli)"}}, {"type": "Feature", "geometry": {"type": "Point", "coordinates": [76.503896, 24.420042]}, "properties": {"toll_name": "Methoon"}}, {"type": "Feature", "geometry": {"type": "Point", "coordinates": [77.073181, 11.012827]}, "properties": {"toll_name": "Kaniyur"}}, {"type": "Feature", "geometry": {"type": "Point", "coordinates": [69.801655, 22.934663]}, "properties": {"toll_name": "Mokha"}}, {"type": "Feature", "geometry": {"type": "Point", "coordinates": [81.827876, 16.715205]}, "properties": {"toll_name": "Eethakota"}}, {"type": "Feature", "geometry": {"type": "Point", "coordinates": [81.430664, 16.823729]}, "properties": {"toll_name": "Unguturu"}}, {"type": "Feature", "geometry": {"type": "Point", "coordinates": [78.574764, 14.979577]}, "properties": {"toll_name": "Chagalmarri"}}, {"type": "Feature", "geometry": {"type": "Point", "coordinates": [78.79121, 14.513518]}, "properties": {"toll_name": "Palempalli"}}, {"type": "Feature", "geometry": {"type": "Point", "coordinates": [91.860491, 25.99328]}, "properties": {"toll_name": "Pahammawlein"}}, {"type": "Feature", "geometry": {"type": "Point", "coordinates": [76.795216, 28.754563]}, "properties": {"toll_name": "Rohad"}}, {"type": "Feature", "geometry": {"type": "Point", "coordinates": [76.130522, 25.17025]}, "properties": {"toll_name": "Kishorpura"}}, {"type": "Feature", "geometry": {"type": "Point", "coordinates": [73.814701, 25.20385]}, "properties": {"toll_name": "Mandawada (Gomati)"}}, {"type": "Feature", "geometry": {"type": "Point", "coordinates": [74.061836, 25.704011]}, "properties": {"toll_name": "Negadiya"}}, {"type": "Feature", "geometry": {"type": "Point", "coordinates": [74.792333, 12.993098]}, "properties": {"toll_name": "Surathkal"}}, {"type": "Feature", "geometry": {"type": "Point", "coordinates": [78.398261, 18.205251]}, "properties": {"toll_name": "Bhiknoor"}}, {"type": "Feature", "geometry": {"type": "Point", "coordinates": [82.32499, 25.674873]}, "properties": {"toll_name": "Kunwarpur"}}, {"type": "Feature", "geometry": {"type": "Point", "coordinates": [81.43825, 26.035838]}, "properties": {"toll_name": "Nuruddinpur"}}, {"type": "Feature", "geometry": {"type": "Point", "coordinates": [82.94286, 21.299829]}, "properties": {"toll_name": "Chuipali"}}, {"type": "Feature", "geometry": {"type": "Point", "coordinates": [82.422438, 21.226901]}, "properties": {"toll_name": "Dhank"}}, {"type": "Feature", "geometry": {"type": "Point", "coordinates": [73.070539, 22.453254]}, "properties": {"toll_name": "Vasad"}}, {"type": "Feature", "geometry": {"type": "Point", "coordinates": [72.740887, 22.715971]}, "properties": {"toll_name": "Radhvanaj (Kheda)"}}, {"type": "Feature", "geometry": {"type": "Point", "coordinates": [76.442169, 28.927049]}, "properties": {"toll_name": "Madina Korsan"}}, {"type": "Feature", "geometry": {"type": "Point", "coordinates": [75.885093, 29.100833]}, "properties": {"toll_name": "Ramayana"}}, {"type": "Feature", "geometry": {"type": "Point", "coordinates": [74.338933, 25.788339]}, "properties": {"toll_name": "Para"}}, {"type": "Feature", "geometry": {"type": "Point", "coordinates": [85.283461, 25.802861]}, "properties": {"toll_name": "Saidpur Patedha"}}, {"type": "Feature", "geometry": {"type": "Point", "coordinates": [74.001389, 26.084278]}, "properties": {"toll_name": "Lilamba"}}, {"type": "Feature", "geometry": {"type": "Point", "coordinates": [81.54465, 27.292105]}, "properties": {"toll_name": "Aaini"}}, {"type": "Feature", "geometry": {"type": "Point", "coordinates": [81.527252, 27.825548]}, "properties": {"toll_name": "Gulalpurva"}}, {"type": "Feature", "geometry": {"type": "Point", "coordinates": [75.794134, 22.607365]}, "properties": {"toll_name": "Sonvay (Indore - Khalghat)"}}, {"type": "Feature", "geometry": {"type": "Point", "coordinates": [74.074993, 19.170738]}, "properties": {"toll_name": "Chalakwadi"}}, {"type": "Feature", "geometry": {"type": "Point", "coordinates": [74.201583, 19.516452]}, "properties": {"toll_name": "Hivargaon Pavsa"}}, {"type": "Feature", "geometry": {"type": "Point", "coordinates": [71.616734, 25.865638]}, "properties": {"toll_name": "Nimbaniya Ki Dhani (Bayatu)"}}, {"type": "Feature", "geometry": {"type": "Point", "coordinates": [74.713082, 13.47641]}, "properties": {"toll_name": "Gundmi"}}, {"type": "Feature", "geometry": {"type": "Point", "coordinates": [74.784562, 13.108245]}, "properties": {"toll_name": "Hazamady"}}, {"type": "Feature", "geometry": {"type": "Point", "coordinates": [74.874087, 12.75958]}, "properties": {"toll_name": "Talapady"}}, {"type": "Feature", "geometry": {"type": "Point", "coordinates": [78.50172, 16.985586]}, "properties": {"toll_name": "Kadthal"}}, {"type": "Feature", "geometry": {"type": "Point", "coordinates": [78.677722, 16.608082]}, "properties": {"toll_name": "Konetipuram"}}, {"type": "Feature", "geometry": {"type": "Point", "coordinates": [79.980527, 17.471578]}, "properties": {"toll_name": "Chinthapally"}}, {"type": "Feature", "geometry": {"type": "Point", "coordinates": [87.966864, 24.822455]}, "properties": {"toll_name": "Lakshmipur"}}, {"type": "Feature", "geometry": {"type": "Point", "coordinates": [88.182566, 25.195872]}, "properties": {"toll_name": "Chakseherdi (Gajol) Bagsarai"}}, {"type": "Feature", "geometry": {"type": "Point", "coordinates": [85.447437, 26.038799]}, "properties": {"toll_name": "Mahanth Maniyari"}}, {"type": "Feature", "geometry": {"type": "Point", "coordinates": [85.875945, 25.590289]}, "properties": {"toll_name": "Govindpur"}}, {"type": "Feature", "geometry": {"type": "Point", "coordinates": [77.086068, 26.537213]}, "properties": {"toll_name": "Konder"}}, {"type": "Feature", "geometry": {"type": "Point", "coordinates": [77.515359, 26.613002]}, "properties": {"toll_name": "Chila Chond"}}, {"type": "Feature", "geometry": {"type": "Point", "coordinates": [77.811532, 27.177493]}, "properties": {"toll_name": "Raibha"}}, {"type": "Feature", "geometry": {"type": "Point", "coordinates": [75.252118, 33.024637]}, "properties": {"toll_name": "Mada"}}, {"type": "Feature", "geometry": {"type": "Point", "coordinates": [75.303421, 33.174771]}, "properties": {"toll_name": "Nashri"}}, {"type": "Feature", "geometry": {"type": "Point", "coordinates": [74.351659, 27.275167]}, "properties": {"toll_name": "Banthadi"}}, {"type": "Feature", "geometry": {"type": "Point", "coordinates": [74.293475, 26.870978]}, "properties": {"toll_name": "Tamdoli"}}, {"type": "Feature", "geometry": {"type": "Point", "coordinates": [73.988241, 25.110565]}, "properties": {"toll_name": "Rupa Kheda"}}, {"type": "Feature", "geometry": {"type": "Point", "coordinates": [74.492879, 25.274995]}, "properties": {"toll_name": "Mujras"}}, {"type": "Feature", "geometry": {"type": "Point", "coordinates": [73.875389, 29.810574]}, "properties": {"toll_name": "SixML"}}, {"type": "Feature", "geometry": {"type": "Point", "coordinates": [75.481566, 28.712002]}, "properties": {"toll_name": "Lasedi"}}, {"type": "Feature", "geometry": {"type": "Point", "coordinates": [75.05592, 28.329757]}, "properties": {"toll_name": "Dhadhar"}}, {"type": "Feature", "geometry": {"type": "Point", "coordinates": [74.723371, 27.76326]}, "properties": {"toll_name": "Shobhasar"}}, {"type": "Feature", "geometry": {"type": "Point", "coordinates": [79.560418, 14.210397]}, "properties": {"toll_name": "Rapur"}}, {"type": "Feature", "geometry": {"type": "Point", "coordinates": [79.589622, 13.788513]}, "properties": {"toll_name": "Chintalapalem"}}, {"type": "Feature", "geometry": {"type": "Point", "coordinates": [80.633633, 16.850428]}, "properties": {"toll_name": "Badava"}}, {"type": "Feature", "geometry": {"type": "Point", "coordinates": [78.651128, 10.158744]}, "properties": {"toll_name": "Shenbagampettai"}}, {"type": "Feature", "geometry": {"type": "Point", "coordinates": [72.914295, 26.308858]}, "properties": {"toll_name": "Jasnathnagar"}}, {"type": "Feature", "geometry": {"type": "Point", "coordinates": [72.327192, 26.570811]}, "properties": {"toll_name": "Motisar (Khanori)"}}, {"type": "Feature", "geometry": {"type": "Point", "coordinates": [71.981819, 26.889721]}, "properties": {"toll_name": "Morani (Pokaran)"}}, {"type": "Feature", "geometry": {"type": "Point", "coordinates": [79.497541, 15.412411]}, "properties": {"toll_name": "Mekalavaripalli"}}, {"type": "Feature", "geometry": {"type": "Point", "coordinates": [79.450868, 15.197922]}, "properties": {"toll_name": "Raviguntapalli"}}, {"type": "Feature", "geometry": {"type": "Point", "coordinates": [79.049052, 14.736039]}, "properties": {"toll_name": "Brahmanapalli"}}, {"type": "Feature", "geometry": {"type": "Point", "coordinates": [86.117538, 21.147001]}, "properties": {"toll_name": "Hasanpur (Sainkul)"}}, {"type": "Feature", "geometry": {"type": "Point", "coordinates": [85.826198, 21.508544]}, "properties": {"toll_name": "Khantaghar (Dhenkikote)"}}, {"type": "Feature", "geometry": {"type": "Point", "coordinates": [85.5836, 21.710167]}, "properties": {"toll_name": "Banajodi (Padmapur)"}}, {"type": "Feature", "geometry": {"type": "Point", "coordinates": [81.365223, 24.522264]}, "properties": {"toll_name": "Khadda"}}, {"type": "Feature", "geometry": {"type": "Point", "coordinates": [81.802372, 24.395853]}, "properties": {"toll_name": "Sonvarsaa"}}, {"type": "Feature", "geometry": {"type": "Point", "coordinates": [75.648213, 29.292067]}, "properties": {"toll_name": "Landhari"}}, {"type": "Feature", "geometry": {"type": "Point", "coordinates": [76.088477, 29.578554]}, "properties": {"toll_name": "Narwana"}}, {"type": "Feature", "geometry": {"type": "Point", "coordinates": [75.819719, 29.299141]}, "properties": {"toll_name": "Badopatti"}}, {"type": "Feature", "geometry": {"type": "Point", "coordinates": [75.604417, 28.99832]}, "properties": {"toll_name": "Chaudhriwas"}}, {"type": "Feature", "geometry": {"type": "Point", "coordinates": [76.148309, 30.265789]}, "properties": {"toll_name": "Kalajhar"}}, {"type": "Feature", "geometry": {"type": "Point", "coordinates": [75.640226, 30.247772]}, "properties": {"toll_name": "Badbar"}}, {"type": "Feature", "geometry": {"type": "Point", "coordinates": [77.064081, 29.060626]}, "properties": {"toll_name": "Bhagan"}}, {"type": "Feature", "geometry": {"type": "Point", "coordinates": [85.756866, 23.548753]}, "properties": {"toll_name": "Sosokhurd"}}, {"type": "Feature", "geometry": {"type": "Point", "coordinates": [86.045229, 23.668354]}, "properties": {"toll_name": "Tand Balidih"}}, {"type": "Feature", "geometry": {"type": "Point", "coordinates": [72.673202, 26.062927]}, "properties": {"toll_name": "Doli"}}, {"type": "Feature", "geometry": {"type": "Point", "coordinates": [79.0306, 10.612499]}, "properties": {"toll_name": "Palaya Gandharvakottai"}}, {"type": "Feature", "geometry": {"type": "Point", "coordinates": [77.317882, 17.745596]}, "properties": {"toll_name": "Mangalgi"}}, {"type": "Feature", "geometry": {"type": "Point", "coordinates": [77.820114, 17.645717]}, "properties": {"toll_name": "Kamkole"}}, {"type": "Feature", "geometry": {"type": "Point", "coordinates": [0.0, 0.0]}, "properties": {"toll_name": "Yedeshi"}}, {"type": "Feature", "geometry": {"type": "Point", "coordinates": [1.0, 1.0]}, "properties": {"toll_name": "Tamalwadi"}}, {"type": "Feature", "geometry": {"type": "Point", "coordinates": [79.475734, 28.930785]}, "properties": {"toll_name": "Deoria"}}, {"type": "Feature", "geometry": {"type": "Point", "coordinates": [76.988952, 24.097278]}, "properties": {"toll_name": "Jogipura"}}, {"type": "Feature", "geometry": {"type": "Point", "coordinates": [77.186491, 24.517835]}, "properties": {"toll_name": "Pagara"}}, {"type": "Feature", "geometry": {"type": "Point", "coordinates": [75.781932, 25.155846]}, "properties": {"toll_name": "Sakatpura(LHS)(Staggered)"}}, {"type": "Feature", "geometry": {"type": "Point", "coordinates": [75.796565, 25.132506]}, "properties": {"toll_name": "Nayagaon(RHS) (Staggered)"}}, {"type": "Feature", "geometry": {"type": "Point", "coordinates": [73.059975, 21.702698]}, "properties": {"toll_name": "Mandava"}}, {"type": "Feature", "geometry": {"type": "Point", "coordinates": [78.872406, 14.708361]}, "properties": {"toll_name": "Basapuram"}}, {"type": "Feature", "geometry": {"type": "Point", "coordinates": [78.070783, 15.741038]}, "properties": {"toll_name": "Nannur"}}, {"type": "Feature", "geometry": {"type": "Point", "coordinates": [77.615602, 25.245762]}, "properties": {"toll_name": "Purankhedi"}}, {"type": "Feature", "geometry": {"type": "Point", "coordinates": [87.376575, 23.491222]}, "properties": {"toll_name": "Banskopa"}}, {"type": "Feature", "geometry": {"type": "Point", "coordinates": [78.875044, 25.637124]}, "properties": {"toll_name": "Semri"}}, {"type": "Feature", "geometry": {"type": "Point", "coordinates": [79.8157, 28.941]}, "properties": {"toll_name": "Banushi"}}, {"type": "Feature", "geometry": {"type": "Point", "coordinates": [71.407666, 25.562272]}, "properties": {"toll_name": "Hathitala"}}, {"type": "Feature", "geometry": {"type": "Point", "coordinates": [71.549558, 25.105861]}, "properties": {"toll_name": "Bor Charnan"}}, {"type": "Feature", "geometry": {"type": "Point", "coordinates": [73.856074, 27.26549]}, "properties": {"toll_name": "Harimma"}}, {"type": "Feature", "geometry": {"type": "Point", "coordinates": [74.1915, 27.30534]}, "properties": {"toll_name": "Nimbi Jodha"}}, {"type": "Feature", "geometry": {"type": "Point", "coordinates": [80.691, 25.865]}, "properties": {"toll_name": "Jindpur"}}, {"type": "Feature", "geometry": {"type": "Point", "coordinates": [81.0326, 26.197]}, "properties": {"toll_name": "Aihar"}}, {"type": "Feature", "geometry": {"type": "Point", "coordinates": [41.293, 25.467]}, "properties": {"toll_name": "Limdi"}}, {"type": "Feature", "geometry": {"type": "Point", "coordinates": [77.194411, 30.21128]}, "properties": {"toll_name": "Milk Majra"}}, {"type": "Feature", "geometry": {"type": "Point", "coordinates": [78.873269, 13.7143]}, "properties": {"toll_name": "Durgamvaripalli"}}, {"type": "Feature", "geometry": {"type": "Point", "coordinates": [79.862348, 14.543265]}, "properties": {"toll_name": "Buchireddypalem"}}, {"type": "Feature", "geometry": {"type": "Point", "coordinates": [79.5156, 14.6854]}, "properties": {"toll_name": "DC PALLI"}}, {"type": "Feature", "geometry": {"type": "Point", "coordinates": [9.3264, 40.32217]}, "properties": {"toll_name": "Zidda"}}, {"type": "Feature", "geometry": {"type": "Point", "coordinates": [75.102496, 30.233092]}, "properties": {"toll_name": "Leherabega"}}, {"type": "Feature", "geometry": {"type": "Point", "coordinates": [75.5, 30.4]}, "properties": {"toll_name": "Paind"}}, {"type": "Feature", "geometry": {"type": "Point", "coordinates": [30.39255, 76.499529]}, "properties": {"toll_name": "Dhareri jattan"}}, {"type": "Feature", "geometry": {"type": "Point", "coordinates": [30.5930556, 76.759305]}, "properties": {"toll_name": "Azizpur"}}, {"type": "Feature", "geometry": {"type": "Point", "coordinates": [75.81971, 29.29914]}, "properties": {"toll_name": "Bhavdeen"}}, {"type": "Feature", "geometry": {"type": "Point", "coordinates": [77.453999, 15.818714]}, "properties": {"toll_name": "Halaharvi"}}, {"type": "Feature", "geometry": {"type": "Point", "coordinates": [72.0194626, 27.0175781]}, "properties": {"toll_name": "Ramdevra"}}, {"type": "Feature", "geometry": {"type": "Point", "coordinates": [71.446434, 27.0298347]}, "properties": {"toll_name": "LATHI"}}, {"type": "Feature", "geometry": {"type": "Point", "coordinates": [77.73, 25.668]}, "properties": {"toll_name": "Mudkhera"}}, {"type": "Feature", "geometry": {"type": "Point", "coordinates": [78.0158, 26.0978]}, "properties": {"toll_name": "Panihaar"}}, {"type": "Feature", "geometry": {"type": "Point", "coordinates": [73.06546, 28.00137]}, "properties": {"toll_name": "Salasar"}}, {"type": "Feature", "geometry": {"type": "Point", "coordinates": [72.40303, 27.45006]}, "properties": {"toll_name": "Nokhra"}}, {"type": "Feature", "geometry": {"type": "Point", "coordinates": [72.3230556, 27.2827777]}, "properties": {"toll_name": "Kheerwa"}}, {"type": "Feature", "geometry": {"type": "Point", "coordinates": [74.793736, 29.880727]}, "properties": {"toll_name": "Khuian Malkan"}}, {"type": "Feature", "geometry": {"type": "Point", "coordinates": [92.2882, 25.4817]}, "properties": {"toll_name": "Pasyih"}}, {"type": "Feature", "geometry": {"type": "Point", "coordinates": [92.3756, 25.706]}, "properties": {"toll_name": "Lomshinong"}}, {"type": "Feature", "geometry": {"type": "Point", "coordinates": [80.7859938, 16.4126432]}, "properties": {"toll_name": "Davuluru"}}, {"type": "Feature", "geometry": {"type": "Point", "coordinates": [22.3905556, 80.8085833]}, "properties": {"toll_name": "Pandutala"}}, {"type": "Feature", "geometry": {"type": "Point", "coordinates": [78.335299, 9.780999]}, "properties": {"toll_name": "Thiruppachethi"}}, {"type": "Feature", "geometry": {"type": "Point", "coordinates": [78.7958556, 28.5798201]}, "properties": {"toll_name": "Mohammad Ibrahimpur"}}, {"type": "Feature", "geometry": {"type": "Point", "coordinates": [74.013274, 19.24404]}, "properties": {"toll_name": "Dumberwadi"}}, {"type": "Feature", "geometry": {"type": "Point", "coordinates": [84.967898, 25.924072]}, "properties": {"toll_name": "Sonho"}}, {"type": "Feature", "geometry": {"type": "Point", "coordinates": [85.182733, 26.055956]}, "properties": {"toll_name": "Pokhraira"}}, {"type": "Feature", "geometry": {"type": "Point", "coordinates": [78.3630407, 28.1859646]}, "properties": {"toll_name": "Belon"}}, {"type": "Feature", "geometry": {"type": "Point", "coordinates": [83.232649, 27.08318]}, "properties": {"toll_name": "Hadawa"}}, {"type": "Feature", "geometry": {"type": "Point", "coordinates": [77.621477, 28.70178]}, "properties": {"toll_name": "Chhajarsi"}}, {"type": "Feature", "geometry": {"type": "Point", "coordinates": [81.3336137, 26.6293177]}, "properties": {"toll_name": "Bara"}}, {"type": "Feature", "geometry": {"type": "Point", "coordinates": [81.56264, 26.18151]}, "properties": {"toll_name": "Asroga"}}, {"type": "Feature", "geometry": {"type": "Point", "coordinates": [80.599361, 24.122464]}, "properties": {"toll_name": "Kherwasani"}}, {"type": "Feature", "geometry": {"type": "Point", "coordinates": [78.71394, 9.398195]}, "properties": {"toll_name": "Bogalur"}}, {"type": "Feature", "geometry": {"type": "Point", "coordinates": [74.41116, 19.15597]}, "properties": {"toll_name": "Dhoki"}}, {"type": "Feature", "geometry": {"type": "Point", "coordinates": [80.30481, 23.48399]}, "properties": {"toll_name": "Majhgawan"}}, {"type": "Feature", "geometry": {"type": "Point", "coordinates": [82.05883, 23.24908]}, "properties": {"toll_name": "Pathoroundi"}}, {"type": "Feature", "geometry": {"type": "Point", "coordinates": [81.429282, 23.28186]}, "properties": {"toll_name": "Shahdol"}}, {"type": "Feature", "geometry": {"type": "Point", "coordinates": [76.614862, 23.657222]}, "properties": {"toll_name": "Chhapra"}}, {"type": "Feature", "geometry": {"type": "Point", "coordinates": [76.175973, 23.330918]}, "properties": {"toll_name": "Rojwas"}}, {"type": "Feature", "geometry": {"type": "Point", "coordinates": [74.836537, 22.741519]}, "properties": {"toll_name": "Dattigaon"}}, {"type": "Feature", "geometry": {"type": "Point", "coordinates": [75.545744, 22.6731595]}, "properties": {"toll_name": "Methwada"}}, {"type": "Feature", "geometry": {"type": "Point", "coordinates": [79.903564, 18.002244]}, "properties": {"toll_name": "Muthojipet"}}, {"type": "Feature", "geometry": {"type": "Point", "coordinates": [80.8863888, 26.3827777]}, "properties": {"toll_name": "Amdi"}}, {"type": "Feature", "geometry": {"type": "Point", "coordinates": [75.6977, 18.63166]}, "properties": {"toll_name": "Pargaon"}}, {"type": "Feature", "geometry": {"type": "Point", "coordinates": [75.7487, 19.3181]}, "properties": {"toll_name": "Padalshingi"}}, {"type": "Feature", "geometry": {"type": "Point", "coordinates": [75.6152, 19.60083]}, "properties": {"toll_name": "Bhokarwadi Maliwadi"}}, {"type": "Feature", "geometry": {"type": "Point", "coordinates": [81.419576, 20.604749]}, "properties": {"toll_name": "Jagtara"}}, {"type": "Feature", "geometry": {"type": "Point", "coordinates": [81.658696, 19.662176]}, "properties": {"toll_name": "Mashora"}}, {"type": "Feature", "geometry": {"type": "Point", "coordinates": [81.98472, 19.161402]}, "properties": {"toll_name": "Badayiguda"}}, {"type": "Feature", "geometry": {"type": "Point", "coordinates": [23.105109, 80.030222]}, "properties": {"toll_name": "Saliwada"}}, {"type": "Feature", "geometry": {"type": "Point", "coordinates": [82.6745948, 26.7024838]}, "properties": {"toll_name": "Aksada"}}, {"type": "Feature", "geometry": {"type": "Point", "coordinates": [83.3643, 27.2644]}, "properties": {"toll_name": "Chhapwa"}}, {"type": "Feature", "geometry": {"type": "Point", "coordinates": [83.297, 26.9209]}, "properties": {"toll_name": "Nainsar"}}, {"type": "Feature", "geometry": {"type": "Point", "coordinates": [80.078098, 23.418277]}, "properties": {"toll_name": "Mohtara"}}, {"type": "Feature", "geometry": {"type": "Point", "coordinates": [81.079578, 24.404862]}, "properties": {"toll_name": "Odhaki Paipkhar"}}, {"type": "Feature", "geometry": {"type": "Point", "coordinates": [82.2718, 17.1387]}, "properties": {"toll_name": "Gollaprolu"}}, {"type": "Feature", "geometry": {"type": "Point", "coordinates": [80.2449, 13.1766]}, "properties": {"toll_name": "Mathur"}}, {"type": "Feature", "geometry": {"type": "Point", "coordinates": [78.2133991, 19.0990474]}, "properties": {"toll_name": "Dilawarpur"}}, {"type": "Feature", "geometry": {"type": "Point", "coordinates": [75.93462, 24.966405]}, "properties": {"toll_name": "Mandana"}}, {"type": "Feature", "geometry": {"type": "Point", "coordinates": [71.205575, 26.630978]}, "properties": {"toll_name": "Kair Fakir ki Dhani"}}, {"type": "Feature", "geometry": {"type": "Point", "coordinates": [82.244267, 26.3395]}, "properties": {"toll_name": "Pidhi"}}, {"type": "Feature", "geometry": {"type": "Point", "coordinates": [81.593749, 26.245278]}, "properties": {"toll_name": "Aindhi"}}, {"type": "Feature", "geometry": {"type": "Point", "coordinates": [80.1005555, 28.1602222]}, "properties": {"toll_name": "Sabli"}}, {"type": "Feature", "geometry": {"type": "Point", "coordinates": [90.238792, 26.565182]}, "properties": {"toll_name": "Patgaon"}}, {"type": "Feature", "geometry": {"type": "Point", "coordinates": [75.739668, 16.786827]}, "properties": {"toll_name": "Kannolli"}}, {"type": "Feature", "geometry": {"type": "Point", "coordinates": [18.82095, 67.7752043]}, "properties": {"toll_name": "Harval"}}, {"type": "Feature", "geometry": {"type": "Point", "coordinates": [76.74068, 17.826227]}, "properties": {"toll_name": "Talmod"}}, {"type": "Feature", "geometry": {"type": "Point", "coordinates": [76.193308, 17.79978]}, "properties": {"toll_name": "Phulwadi"}}, {"type": "Feature", "geometry": {"type": "Point", "coordinates": [79.907251, 23.047864]}, "properties": {"toll_name": "Boharipar (Khursi)"}}, {"type": "Feature", "geometry": {"type": "Point", "coordinates": [77.638119, 23.257753]}, "properties": {"toll_name": "Sehatganj"}}, {"type": "Feature", "geometry": {"type": "Point", "coordinates": [78.039108, 20.551197]}, "properties": {"toll_name": "Husnapur"}}, {"type": "Feature", "geometry": {"type": "Point", "coordinates": [74.2936251, 14.710895]}, "properties": {"toll_name": "Belekeri"}}, {"type": "Feature", "geometry": {"type": "Point", "coordinates": [74.419155, 14.3593904]}, "properties": {"toll_name": "Holegadde"}}, {"type": "Feature", "geometry": {"type": "Point", "coordinates": [74.5966233, 13.9334681]}, "properties": {"toll_name": "Shirur"}}, {"type": "Feature", "geometry": {"type": "Point", "coordinates": [88.36003, 23.629195]}, "properties": {"toll_name": "Sali Bamandanga"}}, {"type": "Feature", "geometry": {"type": "Point", "coordinates": [81.772125, 25.558856]}, "properties": {"toll_name": "Nawabganj (Adampur)only entry  exit lane plaza at Allahabad Bypass"}}, {"type": "Feature", "geometry": {"type": "Point", "coordinates": [76.358179, 18.127774]}, "properties": {"toll_name": "Ashiv"}}, {"type": "Feature", "geometry": {"type": "Point", "coordinates": [88.233611, 21.7575]}, "properties": {"toll_name": "Namkhna"}}, {"type": "Feature", "geometry": {"type": "Point", "coordinates": [77.5011, 27.2038]}, "properties": {"toll_name": "Mudhipar"}}, {"type": "Feature", "geometry": {"type": "Point", "coordinates": [82.061806, 21.950763]}, "properties": {"toll_name": "Bhojpuri"}}, {"type": "Feature", "geometry": {"type": "Point", "coordinates": [78.876369, 20.857818]}, "properties": {"toll_name": "Haladgaon"}}, {"type": "Feature", "geometry": {"type": "Point", "coordinates": [72.65872, 22.96882]}, "properties": {"toll_name": "Vadodara"}}]}